[{"OBJECT_NAME":"SCS-01 M","OBJECT_ID":"2025-100M","EPOCH":"2026-03-09T23:50:15.541152","MEAN_MOTION":15.31880861,"ECCENTRICITY":0.00078021,"INCLINATION":97.3725,"RA_OF_ASC_NODE":145.6908,"ARG_OF_PERICENTER":292.3826,"MEAN_ANOMALY":67.6588,"EPHEMERIS_TYPE":0,"CLASSIFICATION_TYPE":"U","NORAD_CAT_ID":63993,"ELEMENT_SET_NO":999,"REV_AT_EPOCH":4565,"BSTAR":0.0012010051,"MEAN_MOTION_DOT":0.00037061,"MEAN_MOTION_DDOT":0},{"OBJECT_NAME":"STARLINK-35275","OBJECT_ID":"2025-216Y","EPOCH":"2026-03-09T21:31:33.908736","MEAN_MOTION":15.30235435,"ECCENTRICITY":0.00010003,"INCLINATION":53.1574,"RA_OF_ASC_NODE":332.0448,"ARG_OF_PERICENTER":121.402,"MEAN_ANOMALY":238.7078,"EPHEMERIS_TYPE":0,"CLASSIFICATION_TYPE":"U","NORAD_CAT_ID":65756,"ELEMENT_SET_NO":999,"REV_AT_EPOCH":2657,"BSTAR":0.00085967948,"MEAN_MOTION_DOT":0.00025216,"MEAN_MOTION_DDOT":0}]
